{
  "type": "FeatureCollection",
  "features": [
    {
      "type": "Feature",
      "properties": {
        "isochrone_t_min": 15,
        "eta_hours": 0.25,
        "confidence_risk": "P >= 0.5"
      },
      "geometry": {
        "type": "Polygon",
        "coordinates": [
          [
            [
              5.449061864094029,
              43.535644987423645
            ],
            [
              5.449247702622818,
              43.53577973409989
            ],
            [
              5.449433541151609,
              43.53591448077614
            ],
            [
              5.449805218209189,
              43.53591448077614
            ],
            [
              5.4499910567379795,
              43.53604922745239
            ],
            [
              5.4499910567379795,
              43.536318720804886
            ],
            [
              5.4499910567379795,
              43.53658821415738
            ],
            [
              5.4499910567379795,
              43.53685770750988
            ],
            [
              5.449805218209189,
              43.53699245418613
            ],
            [
              5.449433541151609,
              43.53699245418613
            ],
            [
              5.449247702622818,
              43.53712720086238
            ],
            [
              5.449061864094029,
              43.537261947538624
            ],
            [
              5.448876025565238,
              43.53712720086238
            ],
            [
              5.448690187036448,
              43.53699245418613
            ],
            [
              5.448318509978868,
              43.53699245418613
            ],
            [
              5.448132671450077,
              43.53685770750988
            ],
            [
              5.448132671450077,
              43.53658821415738
            ],
            [
              5.448132671450077,
              43.536318720804886
            ],
            [
              5.448132671450077,
              43.53604922745239
            ],
            [
              5.448318509978868,
              43.53591448077614
            ],
            [
              5.448690187036448,
              43.53591448077614
            ],
            [
              5.448876025565238,
              43.53577973409989
            ],
            [
              5.449061864094029,
              43.535644987423645
            ]
          ]
        ]
      }
    },
    {
      "type": "Feature",
      "properties": {
        "isochrone_t_min": 30,
        "eta_hours": 0.5,
        "confidence_risk": "P >= 0.5"
      },
      "geometry": {
        "type": "Polygon",
        "coordinates": [
          [
            [
              5.449061864094029,
              43.535644987423645
            ],
            [
              5.449247702622818,
              43.53577973409989
            ],
            [
              5.449433541151609,
              43.53591448077614
            ],
            [
              5.449805218209189,
              43.53591448077614
            ],
            [
              5.4499910567379795,
              43.53604922745239
            ],
            [
              5.4499910567379795,
              43.536318720804886
            ],
            [
              5.4499910567379795,
              43.53658821415738
            ],
            [
              5.4499910567379795,
              43.53685770750988
            ],
            [
              5.449805218209189,
              43.53699245418613
            ],
            [
              5.449433541151609,
              43.53699245418613
            ],
            [
              5.449247702622818,
              43.53712720086238
            ],
            [
              5.449061864094029,
              43.537261947538624
            ],
            [
              5.448876025565238,
              43.53712720086238
            ],
            [
              5.448690187036448,
              43.53699245418613
            ],
            [
              5.448318509978868,
              43.53699245418613
            ],
            [
              5.448132671450077,
              43.53685770750988
            ],
            [
              5.448132671450077,
              43.53658821415738
            ],
            [
              5.448132671450077,
              43.536318720804886
            ],
            [
              5.448132671450077,
              43.53604922745239
            ],
            [
              5.448318509978868,
              43.53591448077614
            ],
            [
              5.448690187036448,
              43.53591448077614
            ],
            [
              5.448876025565238,
              43.53577973409989
            ],
            [
              5.449061864094029,
              43.535644987423645
            ]
          ]
        ]
      }
    },
    {
      "type": "Feature",
      "properties": {
        "isochrone_t_min": 45,
        "eta_hours": 0.75,
        "confidence_risk": "P >= 0.5"
      },
      "geometry": {
        "type": "Polygon",
        "coordinates": [
          [
            [
              5.449061864094029,
              43.535644987423645
            ],
            [
              5.449247702622818,
              43.53577973409989
            ],
            [
              5.449433541151609,
              43.53591448077614
            ],
            [
              5.449805218209189,
              43.53591448077614
            ],
            [
              5.4499910567379795,
              43.53604922745239
            ],
            [
              5.4499910567379795,
              43.536318720804886
            ],
            [
              5.4499910567379795,
              43.53658821415738
            ],
            [
              5.4499910567379795,
              43.53685770750988
            ],
            [
              5.449805218209189,
              43.53699245418613
            ],
            [
              5.449433541151609,
              43.53699245418613
            ],
            [
              5.449247702622818,
              43.53712720086238
            ],
            [
              5.449061864094029,
              43.537261947538624
            ],
            [
              5.448876025565238,
              43.53712720086238
            ],
            [
              5.448690187036448,
              43.53699245418613
            ],
            [
              5.448318509978868,
              43.53699245418613
            ],
            [
              5.448132671450077,
              43.53685770750988
            ],
            [
              5.448132671450077,
              43.53658821415738
            ],
            [
              5.448132671450077,
              43.536318720804886
            ],
            [
              5.448132671450077,
              43.53604922745239
            ],
            [
              5.448318509978868,
              43.53591448077614
            ],
            [
              5.448690187036448,
              43.53591448077614
            ],
            [
              5.448876025565238,
              43.53577973409989
            ],
            [
              5.449061864094029,
              43.535644987423645
            ]
          ]
        ]
      }
    },
    {
      "type": "Feature",
      "properties": {
        "isochrone_t_min": 60,
        "eta_hours": 1.0,
        "confidence_risk": "P >= 0.5"
      },
      "geometry": {
        "type": "Polygon",
        "coordinates": [
          [
            [
              5.449061864094029,
              43.535644987423645
            ],
            [
              5.449247702622818,
              43.53577973409989
            ],
            [
              5.449433541151609,
              43.53591448077614
            ],
            [
              5.449805218209189,
              43.53591448077614
            ],
            [
              5.4499910567379795,
              43.53604922745239
            ],
            [
              5.4499910567379795,
              43.536318720804886
            ],
            [
              5.4499910567379795,
              43.53658821415738
            ],
            [
              5.4499910567379795,
              43.53685770750988
            ],
            [
              5.449805218209189,
              43.53699245418613
            ],
            [
              5.449433541151609,
              43.53699245418613
            ],
            [
              5.449247702622818,
              43.53712720086238
            ],
            [
              5.449061864094029,
              43.537261947538624
            ],
            [
              5.448876025565238,
              43.53712720086238
            ],
            [
              5.448690187036448,
              43.53699245418613
            ],
            [
              5.448318509978868,
              43.53699245418613
            ],
            [
              5.448132671450077,
              43.53685770750988
            ],
            [
              5.448132671450077,
              43.53658821415738
            ],
            [
              5.448132671450077,
              43.536318720804886
            ],
            [
              5.448132671450077,
              43.53604922745239
            ],
            [
              5.448318509978868,
              43.53591448077614
            ],
            [
              5.448690187036448,
              43.53591448077614
            ],
            [
              5.448876025565238,
              43.53577973409989
            ],
            [
              5.449061864094029,
              43.535644987423645
            ]
          ]
        ]
      }
    },
    {
      "type": "Feature",
      "properties": {
        "isochrone_t_min": 75,
        "eta_hours": 1.25,
        "confidence_risk": "P >= 0.5"
      },
      "geometry": {
        "type": "Polygon",
        "coordinates": [
          [
            [
              5.449061864094029,
              43.535644987423645
            ],
            [
              5.449247702622818,
              43.53577973409989
            ],
            [
              5.449433541151609,
              43.53591448077614
            ],
            [
              5.449805218209189,
              43.53591448077614
            ],
            [
              5.4499910567379795,
              43.53604922745239
            ],
            [
              5.4499910567379795,
              43.536318720804886
            ],
            [
              5.4499910567379795,
              43.53658821415738
            ],
            [
              5.4499910567379795,
              43.53685770750988
            ],
            [
              5.449805218209189,
              43.53699245418613
            ],
            [
              5.449433541151609,
              43.53699245418613
            ],
            [
              5.449247702622818,
              43.53712720086238
            ],
            [
              5.449061864094029,
              43.537261947538624
            ],
            [
              5.448876025565238,
              43.53712720086238
            ],
            [
              5.448690187036448,
              43.53699245418613
            ],
            [
              5.448318509978868,
              43.53699245418613
            ],
            [
              5.448132671450077,
              43.53685770750988
            ],
            [
              5.448132671450077,
              43.53658821415738
            ],
            [
              5.448132671450077,
              43.536318720804886
            ],
            [
              5.448132671450077,
              43.53604922745239
            ],
            [
              5.448318509978868,
              43.53591448077614
            ],
            [
              5.448690187036448,
              43.53591448077614
            ],
            [
              5.448876025565238,
              43.53577973409989
            ],
            [
              5.449061864094029,
              43.535644987423645
            ]
          ]
        ]
      }
    },
    {
      "type": "Feature",
      "properties": {
        "isochrone_t_min": 90,
        "eta_hours": 1.5,
        "confidence_risk": "P >= 0.5"
      },
      "geometry": {
        "type": "Polygon",
        "coordinates": [
          [
            [
              5.449061864094029,
              43.535644987423645
            ],
            [
              5.449247702622818,
              43.53577973409989
            ],
            [
              5.449433541151609,
              43.53591448077614
            ],
            [
              5.449805218209189,
              43.53591448077614
            ],
            [
              5.4499910567379795,
              43.53604922745239
            ],
            [
              5.4499910567379795,
              43.536318720804886
            ],
            [
              5.4499910567379795,
              43.53658821415738
            ],
            [
              5.4499910567379795,
              43.53685770750988
            ],
            [
              5.449805218209189,
              43.53699245418613
            ],
            [
              5.449433541151609,
              43.53699245418613
            ],
            [
              5.449247702622818,
              43.53712720086238
            ],
            [
              5.449061864094029,
              43.537261947538624
            ],
            [
              5.448876025565238,
              43.53712720086238
            ],
            [
              5.448690187036448,
              43.53699245418613
            ],
            [
              5.448318509978868,
              43.53699245418613
            ],
            [
              5.448132671450077,
              43.53685770750988
            ],
            [
              5.448132671450077,
              43.53658821415738
            ],
            [
              5.448132671450077,
              43.536318720804886
            ],
            [
              5.448132671450077,
              43.53604922745239
            ],
            [
              5.448318509978868,
              43.53591448077614
            ],
            [
              5.448690187036448,
              43.53591448077614
            ],
            [
              5.448876025565238,
              43.53577973409989
            ],
            [
              5.449061864094029,
              43.535644987423645
            ]
          ]
        ]
      }
    },
    {
      "type": "Feature",
      "properties": {
        "isochrone_t_min": 105,
        "eta_hours": 1.75,
        "confidence_risk": "P >= 0.5"
      },
      "geometry": {
        "type": "Polygon",
        "coordinates": [
          [
            [
              5.449061864094029,
              43.535644987423645
            ],
            [
              5.449247702622818,
              43.53577973409989
            ],
            [
              5.449433541151609,
              43.53591448077614
            ],
            [
              5.449805218209189,
              43.53591448077614
            ],
            [
              5.4499910567379795,
              43.53604922745239
            ],
            [
              5.4499910567379795,
              43.536318720804886
            ],
            [
              5.4499910567379795,
              43.53658821415738
            ],
            [
              5.4499910567379795,
              43.53685770750988
            ],
            [
              5.449805218209189,
              43.53699245418613
            ],
            [
              5.449433541151609,
              43.53699245418613
            ],
            [
              5.449247702622818,
              43.53712720086238
            ],
            [
              5.449061864094029,
              43.537261947538624
            ],
            [
              5.448876025565238,
              43.53712720086238
            ],
            [
              5.448690187036448,
              43.53699245418613
            ],
            [
              5.448318509978868,
              43.53699245418613
            ],
            [
              5.448132671450077,
              43.53685770750988
            ],
            [
              5.448132671450077,
              43.53658821415738
            ],
            [
              5.448132671450077,
              43.536318720804886
            ],
            [
              5.448132671450077,
              43.53604922745239
            ],
            [
              5.448318509978868,
              43.53591448077614
            ],
            [
              5.448690187036448,
              43.53591448077614
            ],
            [
              5.448876025565238,
              43.53577973409989
            ],
            [
              5.449061864094029,
              43.535644987423645
            ]
          ]
        ]
      }
    },
    {
      "type": "Feature",
      "properties": {
        "isochrone_t_min": 120,
        "eta_hours": 2.0,
        "confidence_risk": "P >= 0.5"
      },
      "geometry": {
        "type": "Polygon",
        "coordinates": [
          [
            [
              5.449061864094029,
              43.535644987423645
            ],
            [
              5.449247702622818,
              43.53577973409989
            ],
            [
              5.449433541151609,
              43.53591448077614
            ],
            [
              5.449805218209189,
              43.53591448077614
            ],
            [
              5.4499910567379795,
              43.53604922745239
            ],
            [
              5.4499910567379795,
              43.536318720804886
            ],
            [
              5.4499910567379795,
              43.53658821415738
            ],
            [
              5.4499910567379795,
              43.53685770750988
            ],
            [
              5.449805218209189,
              43.53699245418613
            ],
            [
              5.449433541151609,
              43.53699245418613
            ],
            [
              5.449247702622818,
              43.53712720086238
            ],
            [
              5.449061864094029,
              43.537261947538624
            ],
            [
              5.448876025565238,
              43.53712720086238
            ],
            [
              5.448690187036448,
              43.53699245418613
            ],
            [
              5.448318509978868,
              43.53699245418613
            ],
            [
              5.448132671450077,
              43.53685770750988
            ],
            [
              5.448132671450077,
              43.53658821415738
            ],
            [
              5.448132671450077,
              43.536318720804886
            ],
            [
              5.448132671450077,
              43.53604922745239
            ],
            [
              5.448318509978868,
              43.53591448077614
            ],
            [
              5.448690187036448,
              43.53591448077614
            ],
            [
              5.448876025565238,
              43.53577973409989
            ],
            [
              5.449061864094029,
              43.535644987423645
            ]
          ]
        ]
      }
    }
  ]
}