{
  "type": "FeatureCollection",
  "crs": {
    "type": "name",
    "properties": {
      "name": "urn:ogc:def:crs:OGC:1.3:CRS84"
    }
  },
  "features": [
    {
      "type": "Feature",
      "properties": {
        "id": "front_t_60min_0",
        "timestamp_minutes": 60,
        "type": "ACTIVE_FIRE_FRONT",
        "status": "UNCONTAINED"
      },
      "geometry": {
        "type": "Polygon",
        "coordinates": [
          [
            [
              5.448690187036448,
              43.535644987423645
            ],
            [
              5.449061864094029,
              43.535644987423645
            ],
            [
              5.449433541151609,
              43.535644987423645
            ],
            [
              5.449619379680399,
              43.53577973409989
            ],
            [
              5.449805218209189,
              43.53591448077614
            ],
            [
              5.4499910567379795,
              43.53604922745239
            ],
            [
              5.4499910567379795,
              43.536318720804886
            ],
            [
              5.4499910567379795,
              43.53658821415738
            ],
            [
              5.4499910567379795,
              43.53685770750988
            ],
            [
              5.449805218209189,
              43.53699245418613
            ],
            [
              5.449619379680399,
              43.53712720086238
            ],
            [
              5.449433541151609,
              43.537261947538624
            ],
            [
              5.449061864094029,
              43.537261947538624
            ],
            [
              5.448690187036448,
              43.537261947538624
            ],
            [
              5.448504348507658,
              43.53712720086238
            ],
            [
              5.448318509978868,
              43.53699245418613
            ],
            [
              5.448132671450077,
              43.53685770750988
            ],
            [
              5.448132671450077,
              43.53658821415738
            ],
            [
              5.448132671450077,
              43.536318720804886
            ],
            [
              5.448132671450077,
              43.53604922745239
            ],
            [
              5.448318509978868,
              43.53591448077614
            ],
            [
              5.448504348507658,
              43.53577973409989
            ],
            [
              5.448690187036448,
              43.535644987423645
            ]
          ]
        ]
      }
    }
  ]
}