{
  "type": "FeatureCollection",
  "features": [
    {
      "type": "Feature",
      "properties": {
        "isochrone_t_min": 15,
        "eta_hours": 0.25,
        "confidence_risk": "P >= 0.5"
      },
      "geometry": {
        "type": "Polygon",
        "coordinates": [
          [
            [
              5.450406095140831,
              43.52848904060367
            ],
            [
              5.450591918268346,
              43.52862378727992
            ],
            [
              5.450406095140831,
              43.528758533956164
            ],
            [
              5.450220272013316,
              43.52862378727992
            ],
            [
              5.450406095140831,
              43.52848904060367
            ]
          ]
        ]
      }
    },
    {
      "type": "Feature",
      "properties": {
        "isochrone_t_min": 15,
        "eta_hours": 0.25,
        "confidence_risk": "P >= 0.5"
      },
      "geometry": {
        "type": "Polygon",
        "coordinates": [
          [
            [
              5.450777741395861,
              43.528758533956164
            ],
            [
              5.450963564523375,
              43.52889328063242
            ],
            [
              5.450777741395861,
              43.52902802730866
            ],
            [
              5.450591918268346,
              43.52889328063242
            ],
            [
              5.450777741395861,
              43.528758533956164
            ]
          ]
        ]
      }
    },
    {
      "type": "Feature",
      "properties": {
        "isochrone_t_min": 15,
        "eta_hours": 0.25,
        "confidence_risk": "P >= 0.5"
      },
      "geometry": {
        "type": "Polygon",
        "coordinates": [
          [
            [
              5.448919510120712,
              43.52902802730866
            ],
            [
              5.449105333248227,
              43.529162773984915
            ],
            [
              5.449291156375742,
              43.52929752066116
            ],
            [
              5.449476979503257,
              43.529432267337405
            ],
            [
              5.449476979503257,
              43.5297017606899
            ],
            [
              5.449662802630772,
              43.529836507366156
            ],
            [
              5.449848625758286,
              43.5299712540424
            ],
            [
              5.449662802630772,
              43.53010600071865
            ],
            [
              5.449291156375742,
              43.53010600071865
            ],
            [
              5.449105333248227,
              43.5299712540424
            ],
            [
              5.448919510120712,
              43.529836507366156
            ],
            [
              5.448733686993197,
              43.5297017606899
            ],
            [
              5.448733686993197,
              43.529432267337405
            ],
            [
              5.448733686993197,
              43.529162773984915
            ],
            [
              5.448919510120712,
              43.52902802730866
            ]
          ]
        ]
      }
    },
    {
      "type": "Feature",
      "properties": {
        "isochrone_t_min": 15,
        "eta_hours": 0.25,
        "confidence_risk": "P >= 0.5"
      },
      "geometry": {
        "type": "Polygon",
        "coordinates": [
          [
            [
              5.45114938765089,
              43.52902802730866
            ],
            [
              5.451335210778405,
              43.529162773984915
            ],
            [
              5.45114938765089,
              43.52929752066116
            ],
            [
              5.450963564523375,
              43.529162773984915
            ],
            [
              5.45114938765089,
              43.52902802730866
            ]
          ]
        ]
      }
    },
    {
      "type": "Feature",
      "properties": {
        "isochrone_t_min": 15,
        "eta_hours": 0.25,
        "confidence_risk": "P >= 0.5"
      },
      "geometry": {
        "type": "Polygon",
        "coordinates": [
          [
            [
              5.450034448885801,
              43.53010600071865
            ],
            [
              5.450220272013316,
              43.5302407473949
            ],
            [
              5.450034448885801,
              43.53037549407115
            ],
            [
              5.449848625758286,
              43.5302407473949
            ],
            [
              5.450034448885801,
              43.53010600071865
            ]
          ]
        ]
      }
    },
    {
      "type": "Feature",
      "properties": {
        "isochrone_t_min": 30,
        "eta_hours": 0.5,
        "confidence_risk": "P >= 0.5"
      },
      "geometry": {
        "type": "Polygon",
        "coordinates": [
          [
            [
              5.450406095140831,
              43.52848904060367
            ],
            [
              5.450591918268346,
              43.52862378727992
            ],
            [
              5.450406095140831,
              43.528758533956164
            ],
            [
              5.450220272013316,
              43.52862378727992
            ],
            [
              5.450406095140831,
              43.52848904060367
            ]
          ]
        ]
      }
    },
    {
      "type": "Feature",
      "properties": {
        "isochrone_t_min": 30,
        "eta_hours": 0.5,
        "confidence_risk": "P >= 0.5"
      },
      "geometry": {
        "type": "Polygon",
        "coordinates": [
          [
            [
              5.450777741395861,
              43.528758533956164
            ],
            [
              5.450963564523375,
              43.52889328063242
            ],
            [
              5.450777741395861,
              43.52902802730866
            ],
            [
              5.450591918268346,
              43.52889328063242
            ],
            [
              5.450777741395861,
              43.528758533956164
            ]
          ]
        ]
      }
    },
    {
      "type": "Feature",
      "properties": {
        "isochrone_t_min": 30,
        "eta_hours": 0.5,
        "confidence_risk": "P >= 0.5"
      },
      "geometry": {
        "type": "Polygon",
        "coordinates": [
          [
            [
              5.448919510120712,
              43.52902802730866
            ],
            [
              5.449105333248227,
              43.529162773984915
            ],
            [
              5.449291156375742,
              43.52929752066116
            ],
            [
              5.449476979503257,
              43.529432267337405
            ],
            [
              5.449476979503257,
              43.5297017606899
            ],
            [
              5.449662802630772,
              43.529836507366156
            ],
            [
              5.449848625758286,
              43.5299712540424
            ],
            [
              5.449662802630772,
              43.53010600071865
            ],
            [
              5.449291156375742,
              43.53010600071865
            ],
            [
              5.449105333248227,
              43.5299712540424
            ],
            [
              5.448919510120712,
              43.529836507366156
            ],
            [
              5.448733686993197,
              43.5297017606899
            ],
            [
              5.448733686993197,
              43.529432267337405
            ],
            [
              5.448733686993197,
              43.529162773984915
            ],
            [
              5.448919510120712,
              43.52902802730866
            ]
          ]
        ]
      }
    },
    {
      "type": "Feature",
      "properties": {
        "isochrone_t_min": 30,
        "eta_hours": 0.5,
        "confidence_risk": "P >= 0.5"
      },
      "geometry": {
        "type": "Polygon",
        "coordinates": [
          [
            [
              5.45114938765089,
              43.52902802730866
            ],
            [
              5.451335210778405,
              43.529162773984915
            ],
            [
              5.45114938765089,
              43.52929752066116
            ],
            [
              5.450963564523375,
              43.529162773984915
            ],
            [
              5.45114938765089,
              43.52902802730866
            ]
          ]
        ]
      }
    },
    {
      "type": "Feature",
      "properties": {
        "isochrone_t_min": 30,
        "eta_hours": 0.5,
        "confidence_risk": "P >= 0.5"
      },
      "geometry": {
        "type": "Polygon",
        "coordinates": [
          [
            [
              5.450034448885801,
              43.53010600071865
            ],
            [
              5.450220272013316,
              43.5302407473949
            ],
            [
              5.450034448885801,
              43.53037549407115
            ],
            [
              5.449848625758286,
              43.5302407473949
            ],
            [
              5.450034448885801,
              43.53010600071865
            ]
          ]
        ]
      }
    },
    {
      "type": "Feature",
      "properties": {
        "isochrone_t_min": 45,
        "eta_hours": 0.75,
        "confidence_risk": "P >= 0.5"
      },
      "geometry": {
        "type": "Polygon",
        "coordinates": [
          [
            [
              5.450406095140831,
              43.52848904060367
            ],
            [
              5.450591918268346,
              43.52862378727992
            ],
            [
              5.450406095140831,
              43.528758533956164
            ],
            [
              5.450220272013316,
              43.52862378727992
            ],
            [
              5.450406095140831,
              43.52848904060367
            ]
          ]
        ]
      }
    },
    {
      "type": "Feature",
      "properties": {
        "isochrone_t_min": 45,
        "eta_hours": 0.75,
        "confidence_risk": "P >= 0.5"
      },
      "geometry": {
        "type": "Polygon",
        "coordinates": [
          [
            [
              5.450777741395861,
              43.528758533956164
            ],
            [
              5.450963564523375,
              43.52889328063242
            ],
            [
              5.450777741395861,
              43.52902802730866
            ],
            [
              5.450591918268346,
              43.52889328063242
            ],
            [
              5.450777741395861,
              43.528758533956164
            ]
          ]
        ]
      }
    },
    {
      "type": "Feature",
      "properties": {
        "isochrone_t_min": 45,
        "eta_hours": 0.75,
        "confidence_risk": "P >= 0.5"
      },
      "geometry": {
        "type": "Polygon",
        "coordinates": [
          [
            [
              5.448919510120712,
              43.52902802730866
            ],
            [
              5.449105333248227,
              43.529162773984915
            ],
            [
              5.449291156375742,
              43.52929752066116
            ],
            [
              5.449476979503257,
              43.529432267337405
            ],
            [
              5.449476979503257,
              43.5297017606899
            ],
            [
              5.449662802630772,
              43.529836507366156
            ],
            [
              5.449848625758286,
              43.5299712540424
            ],
            [
              5.449662802630772,
              43.53010600071865
            ],
            [
              5.449291156375742,
              43.53010600071865
            ],
            [
              5.449105333248227,
              43.5299712540424
            ],
            [
              5.448919510120712,
              43.529836507366156
            ],
            [
              5.448733686993197,
              43.5297017606899
            ],
            [
              5.448733686993197,
              43.529432267337405
            ],
            [
              5.448733686993197,
              43.529162773984915
            ],
            [
              5.448919510120712,
              43.52902802730866
            ]
          ]
        ]
      }
    },
    {
      "type": "Feature",
      "properties": {
        "isochrone_t_min": 45,
        "eta_hours": 0.75,
        "confidence_risk": "P >= 0.5"
      },
      "geometry": {
        "type": "Polygon",
        "coordinates": [
          [
            [
              5.45114938765089,
              43.52902802730866
            ],
            [
              5.451335210778405,
              43.529162773984915
            ],
            [
              5.45114938765089,
              43.52929752066116
            ],
            [
              5.450963564523375,
              43.529162773984915
            ],
            [
              5.45114938765089,
              43.52902802730866
            ]
          ]
        ]
      }
    },
    {
      "type": "Feature",
      "properties": {
        "isochrone_t_min": 45,
        "eta_hours": 0.75,
        "confidence_risk": "P >= 0.5"
      },
      "geometry": {
        "type": "Polygon",
        "coordinates": [
          [
            [
              5.450034448885801,
              43.53010600071865
            ],
            [
              5.450220272013316,
              43.5302407473949
            ],
            [
              5.450034448885801,
              43.53037549407115
            ],
            [
              5.449848625758286,
              43.5302407473949
            ],
            [
              5.450034448885801,
              43.53010600071865
            ]
          ]
        ]
      }
    },
    {
      "type": "Feature",
      "properties": {
        "isochrone_t_min": 60,
        "eta_hours": 1.0,
        "confidence_risk": "P >= 0.5"
      },
      "geometry": {
        "type": "Polygon",
        "coordinates": [
          [
            [
              5.450406095140831,
              43.52848904060367
            ],
            [
              5.450591918268346,
              43.52862378727992
            ],
            [
              5.450406095140831,
              43.528758533956164
            ],
            [
              5.450220272013316,
              43.52862378727992
            ],
            [
              5.450406095140831,
              43.52848904060367
            ]
          ]
        ]
      }
    },
    {
      "type": "Feature",
      "properties": {
        "isochrone_t_min": 60,
        "eta_hours": 1.0,
        "confidence_risk": "P >= 0.5"
      },
      "geometry": {
        "type": "Polygon",
        "coordinates": [
          [
            [
              5.450777741395861,
              43.528758533956164
            ],
            [
              5.450963564523375,
              43.52889328063242
            ],
            [
              5.450777741395861,
              43.52902802730866
            ],
            [
              5.450591918268346,
              43.52889328063242
            ],
            [
              5.450777741395861,
              43.528758533956164
            ]
          ]
        ]
      }
    },
    {
      "type": "Feature",
      "properties": {
        "isochrone_t_min": 60,
        "eta_hours": 1.0,
        "confidence_risk": "P >= 0.5"
      },
      "geometry": {
        "type": "Polygon",
        "coordinates": [
          [
            [
              5.448919510120712,
              43.52902802730866
            ],
            [
              5.449105333248227,
              43.529162773984915
            ],
            [
              5.449291156375742,
              43.52929752066116
            ],
            [
              5.449476979503257,
              43.529432267337405
            ],
            [
              5.449476979503257,
              43.5297017606899
            ],
            [
              5.449662802630772,
              43.529836507366156
            ],
            [
              5.449848625758286,
              43.5299712540424
            ],
            [
              5.449662802630772,
              43.53010600071865
            ],
            [
              5.449291156375742,
              43.53010600071865
            ],
            [
              5.449105333248227,
              43.5299712540424
            ],
            [
              5.448919510120712,
              43.529836507366156
            ],
            [
              5.448733686993197,
              43.5297017606899
            ],
            [
              5.448733686993197,
              43.529432267337405
            ],
            [
              5.448733686993197,
              43.529162773984915
            ],
            [
              5.448919510120712,
              43.52902802730866
            ]
          ]
        ]
      }
    },
    {
      "type": "Feature",
      "properties": {
        "isochrone_t_min": 60,
        "eta_hours": 1.0,
        "confidence_risk": "P >= 0.5"
      },
      "geometry": {
        "type": "Polygon",
        "coordinates": [
          [
            [
              5.45114938765089,
              43.52902802730866
            ],
            [
              5.451335210778405,
              43.529162773984915
            ],
            [
              5.45114938765089,
              43.52929752066116
            ],
            [
              5.450963564523375,
              43.529162773984915
            ],
            [
              5.45114938765089,
              43.52902802730866
            ]
          ]
        ]
      }
    },
    {
      "type": "Feature",
      "properties": {
        "isochrone_t_min": 60,
        "eta_hours": 1.0,
        "confidence_risk": "P >= 0.5"
      },
      "geometry": {
        "type": "Polygon",
        "coordinates": [
          [
            [
              5.450034448885801,
              43.53010600071865
            ],
            [
              5.450220272013316,
              43.5302407473949
            ],
            [
              5.450034448885801,
              43.53037549407115
            ],
            [
              5.449848625758286,
              43.5302407473949
            ],
            [
              5.450034448885801,
              43.53010600071865
            ]
          ]
        ]
      }
    }
  ]
}