{
  "type": "FeatureCollection",
  "crs": {
    "type": "name",
    "properties": {
      "name": "urn:ogc:def:crs:OGC:1.3:CRS84"
    }
  },
  "features": [
    {
      "type": "Feature",
      "properties": {
        "id": "front_t_60min_0",
        "timestamp_minutes": 60,
        "type": "ACTIVE_FIRE_FRONT",
        "status": "UNCONTAINED"
      },
      "geometry": {
        "type": "Polygon",
        "coordinates": [
          [
            [
              5.491689197294911,
              43.515474715429995
            ],
            [
              5.492060755118096,
              43.515474715429995
            ],
            [
              5.492432312941282,
              43.515474715429995
            ],
            [
              5.492803870764466,
              43.515474715429995
            ],
            [
              5.4931754285876515,
              43.515474715429995
            ],
            [
              5.493361207499244,
              43.51560946210624
            ],
            [
              5.493361207499244,
              43.51587895545874
            ],
            [
              5.493361207499244,
              43.51614844881124
            ],
            [
              5.493361207499244,
              43.516417942163734
            ],
            [
              5.493361207499244,
              43.51668743551623
            ],
            [
              5.4931754285876515,
              43.516822182192485
            ],
            [
              5.492989649676059,
              43.51695692886873
            ],
            [
              5.492803870764466,
              43.517091675544975
            ],
            [
              5.492432312941282,
              43.517091675544975
            ],
            [
              5.492060755118096,
              43.517091675544975
            ],
            [
              5.491689197294911,
              43.517091675544975
            ],
            [
              5.491503418383319,
              43.51695692886873
            ],
            [
              5.491317639471727,
              43.516822182192485
            ],
            [
              5.491131860560134,
              43.51668743551623
            ],
            [
              5.491131860560134,
              43.516417942163734
            ],
            [
              5.491131860560134,
              43.51614844881124
            ],
            [
              5.491131860560134,
              43.51587895545874
            ],
            [
              5.491317639471727,
              43.51574420878249
            ],
            [
              5.491503418383319,
              43.51560946210624
            ],
            [
              5.491689197294911,
              43.515474715429995
            ]
          ]
        ]
      }
    }
  ]
}