{
  "type": "FeatureCollection",
  "features": [
    {
      "type": "Feature",
      "properties": {
        "isochrone_t_min": 15,
        "eta_hours": 0.25,
        "confidence_risk": "P >= 0.5"
      },
      "geometry": {
        "type": "Polygon",
        "coordinates": [
          [
            [
              5.491689197294911,
              43.515474715429995
            ],
            [
              5.492060755118096,
              43.515474715429995
            ],
            [
              5.492432312941282,
              43.515474715429995
            ],
            [
              5.492803870764466,
              43.515474715429995
            ],
            [
              5.492989649676059,
              43.51560946210624
            ],
            [
              5.4931754285876515,
              43.51574420878249
            ],
            [
              5.493361207499244,
              43.51587895545874
            ],
            [
              5.493361207499244,
              43.51614844881124
            ],
            [
              5.493361207499244,
              43.516417942163734
            ],
            [
              5.493361207499244,
              43.51668743551623
            ],
            [
              5.4931754285876515,
              43.516822182192485
            ],
            [
              5.492989649676059,
              43.51695692886873
            ],
            [
              5.492803870764466,
              43.517091675544975
            ],
            [
              5.492432312941282,
              43.517091675544975
            ],
            [
              5.492060755118096,
              43.517091675544975
            ],
            [
              5.491874976206504,
              43.51695692886873
            ],
            [
              5.491689197294911,
              43.516822182192485
            ],
            [
              5.491503418383319,
              43.51668743551623
            ],
            [
              5.491317639471727,
              43.51655268883999
            ],
            [
              5.491131860560134,
              43.516417942163734
            ],
            [
              5.491131860560134,
              43.51614844881124
            ],
            [
              5.491131860560134,
              43.51587895545874
            ],
            [
              5.491317639471727,
              43.51574420878249
            ],
            [
              5.491503418383319,
              43.51560946210624
            ],
            [
              5.491689197294911,
              43.515474715429995
            ]
          ]
        ]
      }
    },
    {
      "type": "Feature",
      "properties": {
        "isochrone_t_min": 30,
        "eta_hours": 0.5,
        "confidence_risk": "P >= 0.5"
      },
      "geometry": {
        "type": "Polygon",
        "coordinates": [
          [
            [
              5.491689197294911,
              43.515474715429995
            ],
            [
              5.492060755118096,
              43.515474715429995
            ],
            [
              5.492432312941282,
              43.515474715429995
            ],
            [
              5.492803870764466,
              43.515474715429995
            ],
            [
              5.492989649676059,
              43.51560946210624
            ],
            [
              5.4931754285876515,
              43.51574420878249
            ],
            [
              5.493361207499244,
              43.51587895545874
            ],
            [
              5.493361207499244,
              43.51614844881124
            ],
            [
              5.493361207499244,
              43.516417942163734
            ],
            [
              5.493361207499244,
              43.51668743551623
            ],
            [
              5.4931754285876515,
              43.516822182192485
            ],
            [
              5.492989649676059,
              43.51695692886873
            ],
            [
              5.492803870764466,
              43.517091675544975
            ],
            [
              5.492432312941282,
              43.517091675544975
            ],
            [
              5.492060755118096,
              43.517091675544975
            ],
            [
              5.491874976206504,
              43.51695692886873
            ],
            [
              5.491689197294911,
              43.516822182192485
            ],
            [
              5.491503418383319,
              43.51668743551623
            ],
            [
              5.491317639471727,
              43.51655268883999
            ],
            [
              5.491131860560134,
              43.516417942163734
            ],
            [
              5.491131860560134,
              43.51614844881124
            ],
            [
              5.491131860560134,
              43.51587895545874
            ],
            [
              5.491317639471727,
              43.51574420878249
            ],
            [
              5.491503418383319,
              43.51560946210624
            ],
            [
              5.491689197294911,
              43.515474715429995
            ]
          ]
        ]
      }
    },
    {
      "type": "Feature",
      "properties": {
        "isochrone_t_min": 45,
        "eta_hours": 0.75,
        "confidence_risk": "P >= 0.5"
      },
      "geometry": {
        "type": "Polygon",
        "coordinates": [
          [
            [
              5.491689197294911,
              43.515474715429995
            ],
            [
              5.492060755118096,
              43.515474715429995
            ],
            [
              5.492432312941282,
              43.515474715429995
            ],
            [
              5.492803870764466,
              43.515474715429995
            ],
            [
              5.492989649676059,
              43.51560946210624
            ],
            [
              5.4931754285876515,
              43.51574420878249
            ],
            [
              5.493361207499244,
              43.51587895545874
            ],
            [
              5.493361207499244,
              43.51614844881124
            ],
            [
              5.493361207499244,
              43.516417942163734
            ],
            [
              5.493361207499244,
              43.51668743551623
            ],
            [
              5.4931754285876515,
              43.516822182192485
            ],
            [
              5.492989649676059,
              43.51695692886873
            ],
            [
              5.492803870764466,
              43.517091675544975
            ],
            [
              5.492432312941282,
              43.517091675544975
            ],
            [
              5.492060755118096,
              43.517091675544975
            ],
            [
              5.491874976206504,
              43.51695692886873
            ],
            [
              5.491689197294911,
              43.516822182192485
            ],
            [
              5.491503418383319,
              43.51668743551623
            ],
            [
              5.491317639471727,
              43.51655268883999
            ],
            [
              5.491131860560134,
              43.516417942163734
            ],
            [
              5.491131860560134,
              43.51614844881124
            ],
            [
              5.491131860560134,
              43.51587895545874
            ],
            [
              5.491317639471727,
              43.51574420878249
            ],
            [
              5.491503418383319,
              43.51560946210624
            ],
            [
              5.491689197294911,
              43.515474715429995
            ]
          ]
        ]
      }
    },
    {
      "type": "Feature",
      "properties": {
        "isochrone_t_min": 60,
        "eta_hours": 1.0,
        "confidence_risk": "P >= 0.5"
      },
      "geometry": {
        "type": "Polygon",
        "coordinates": [
          [
            [
              5.491689197294911,
              43.515474715429995
            ],
            [
              5.492060755118096,
              43.515474715429995
            ],
            [
              5.492432312941282,
              43.515474715429995
            ],
            [
              5.492803870764466,
              43.515474715429995
            ],
            [
              5.492989649676059,
              43.51560946210624
            ],
            [
              5.4931754285876515,
              43.51574420878249
            ],
            [
              5.493361207499244,
              43.51587895545874
            ],
            [
              5.493361207499244,
              43.51614844881124
            ],
            [
              5.493361207499244,
              43.516417942163734
            ],
            [
              5.493361207499244,
              43.51668743551623
            ],
            [
              5.4931754285876515,
              43.516822182192485
            ],
            [
              5.492989649676059,
              43.51695692886873
            ],
            [
              5.492803870764466,
              43.517091675544975
            ],
            [
              5.492432312941282,
              43.517091675544975
            ],
            [
              5.492060755118096,
              43.517091675544975
            ],
            [
              5.491874976206504,
              43.51695692886873
            ],
            [
              5.491689197294911,
              43.516822182192485
            ],
            [
              5.491503418383319,
              43.51668743551623
            ],
            [
              5.491317639471727,
              43.51655268883999
            ],
            [
              5.491131860560134,
              43.516417942163734
            ],
            [
              5.491131860560134,
              43.51614844881124
            ],
            [
              5.491131860560134,
              43.51587895545874
            ],
            [
              5.491317639471727,
              43.51574420878249
            ],
            [
              5.491503418383319,
              43.51560946210624
            ],
            [
              5.491689197294911,
              43.515474715429995
            ]
          ]
        ]
      }
    },
    {
      "type": "Feature",
      "properties": {
        "isochrone_t_min": 75,
        "eta_hours": 1.25,
        "confidence_risk": "P >= 0.5"
      },
      "geometry": {
        "type": "Polygon",
        "coordinates": [
          [
            [
              5.491689197294911,
              43.515474715429995
            ],
            [
              5.492060755118096,
              43.515474715429995
            ],
            [
              5.492432312941282,
              43.515474715429995
            ],
            [
              5.492803870764466,
              43.515474715429995
            ],
            [
              5.492989649676059,
              43.51560946210624
            ],
            [
              5.4931754285876515,
              43.51574420878249
            ],
            [
              5.493361207499244,
              43.51587895545874
            ],
            [
              5.493361207499244,
              43.51614844881124
            ],
            [
              5.493361207499244,
              43.516417942163734
            ],
            [
              5.493361207499244,
              43.51668743551623
            ],
            [
              5.4931754285876515,
              43.516822182192485
            ],
            [
              5.492989649676059,
              43.51695692886873
            ],
            [
              5.492803870764466,
              43.517091675544975
            ],
            [
              5.492432312941282,
              43.517091675544975
            ],
            [
              5.492060755118096,
              43.517091675544975
            ],
            [
              5.491874976206504,
              43.51695692886873
            ],
            [
              5.491689197294911,
              43.516822182192485
            ],
            [
              5.491503418383319,
              43.51668743551623
            ],
            [
              5.491317639471727,
              43.51655268883999
            ],
            [
              5.491131860560134,
              43.516417942163734
            ],
            [
              5.491131860560134,
              43.51614844881124
            ],
            [
              5.491131860560134,
              43.51587895545874
            ],
            [
              5.491317639471727,
              43.51574420878249
            ],
            [
              5.491503418383319,
              43.51560946210624
            ],
            [
              5.491689197294911,
              43.515474715429995
            ]
          ]
        ]
      }
    }
  ]
}