{
  "type": "FeatureCollection",
  "crs": {
    "type": "name",
    "properties": {
      "name": "urn:ogc:def:crs:OGC:1.3:CRS84"
    }
  },
  "features": [
    {
      "type": "Feature",
      "properties": {
        "id": "front_t_60min_0",
        "timestamp_minutes": 60,
        "type": "ACTIVE_FIRE_FRONT",
        "status": "UNCONTAINED"
      },
      "geometry": {
        "type": "Polygon",
        "coordinates": [
          [
            [
              5.450034448885801,
              43.52821954725117
            ],
            [
              5.450220272013316,
              43.52835429392742
            ],
            [
              5.450034448885801,
              43.52848904060367
            ],
            [
              5.449848625758286,
              43.52835429392742
            ],
            [
              5.450034448885801,
              43.52821954725117
            ]
          ]
        ]
      }
    },
    {
      "type": "Feature",
      "properties": {
        "id": "front_t_60min_1",
        "timestamp_minutes": 60,
        "type": "ACTIVE_FIRE_FRONT",
        "status": "UNCONTAINED"
      },
      "geometry": {
        "type": "Polygon",
        "coordinates": [
          [
            [
              5.450406095140831,
              43.52848904060367
            ],
            [
              5.450777741395861,
              43.52848904060367
            ],
            [
              5.450963564523375,
              43.52862378727992
            ],
            [
              5.45114938765089,
              43.528758533956164
            ],
            [
              5.451335210778405,
              43.52889328063242
            ],
            [
              5.451335210778405,
              43.529162773984915
            ],
            [
              5.45114938765089,
              43.52929752066116
            ],
            [
              5.450963564523375,
              43.529162773984915
            ],
            [
              5.450777741395861,
              43.52902802730866
            ],
            [
              5.450591918268346,
              43.52889328063242
            ],
            [
              5.450406095140831,
              43.528758533956164
            ],
            [
              5.450220272013316,
              43.52862378727992
            ],
            [
              5.450406095140831,
              43.52848904060367
            ]
          ]
        ]
      }
    },
    {
      "type": "Feature",
      "properties": {
        "id": "front_t_60min_2",
        "timestamp_minutes": 60,
        "type": "ACTIVE_FIRE_FRONT",
        "status": "UNCONTAINED"
      },
      "geometry": {
        "type": "Polygon",
        "coordinates": [
          [
            [
              5.448919510120712,
              43.52902802730866
            ],
            [
              5.449105333248227,
              43.529162773984915
            ],
            [
              5.449291156375742,
              43.52929752066116
            ],
            [
              5.449476979503257,
              43.529432267337405
            ],
            [
              5.449476979503257,
              43.5297017606899
            ],
            [
              5.449662802630772,
              43.529836507366156
            ],
            [
              5.449848625758286,
              43.5299712540424
            ],
            [
              5.450034448885801,
              43.53010600071865
            ],
            [
              5.450220272013316,
              43.5302407473949
            ],
            [
              5.450034448885801,
              43.53037549407115
            ],
            [
              5.449662802630772,
              43.53037549407115
            ],
            [
              5.449476979503257,
              43.5302407473949
            ],
            [
              5.449291156375742,
              43.53010600071865
            ],
            [
              5.448919510120712,
              43.53010600071865
            ],
            [
              5.448733686993197,
              43.5299712540424
            ],
            [
              5.448733686993197,
              43.5297017606899
            ],
            [
              5.448733686993197,
              43.529432267337405
            ],
            [
              5.448733686993197,
              43.529162773984915
            ],
            [
              5.448919510120712,
              43.52902802730866
            ]
          ]
        ]
      }
    }
  ]
}