{
  "type": "FeatureCollection",
  "metadata": {
    "iou_jaccard": 97.44,
    "dice_f1": 98.7,
    "precision": 97.44,
    "recall": 100.0,
    "accuracy": 99.61,
    "brier_score": 0.0038,
    "hausdorff_dist_m": 323.1,
    "pred_area_ha": 56.16,
    "ground_truth_area_ha": 54.72,
    "area_error_pct": 2.63
  },
  "features": [
    {
      "type": "Feature",
      "properties": {
        "layer": "REALITE_SENTINEL2",
        "label": "Verite Terrain Observee (Sentinel-2 dNBR)",
        "stroke": "#0284c7",
        "fill": "#0284c7",
        "fill-opacity": 0.3
      },
      "geometry": {
        "type": "Polygon",
        "coordinates": [
          [
            [
              5.447017640277336,
              43.525
            ],
            [
              5.447017640277336,
              43.525269493352496
            ],
            [
              5.447203478806126,
              43.52540424002874
            ],
            [
              5.447389317334916,
              43.525538986704994
            ],
            [
              5.447389317334916,
              43.52580848005749
            ],
            [
              5.447575155863706,
              43.52594322673374
            ],
            [
              5.447760994392497,
              43.52607797340999
            ],
            [
              5.4479468329212875,
              43.526212720086235
            ],
            [
              5.448132671450077,
              43.52634746676249
            ],
            [
              5.448132671450077,
              43.526616960114985
            ],
            [
              5.448318509978868,
              43.52675170679123
            ],
            [
              5.448504348507658,
              43.526886453467476
            ],
            [
              5.448504348507658,
              43.527155946819974
            ],
            [
              5.448690187036448,
              43.52729069349623
            ],
            [
              5.448876025565238,
              43.52742544017247
            ],
            [
              5.448876025565238,
              43.52769493352497
            ],
            [
              5.449061864094029,
              43.52782968020122
            ],
            [
              5.449247702622818,
              43.52796442687747
            ],
            [
              5.449247702622818,
              43.528233920229965
            ],
            [
              5.449433541151609,
              43.52836866690622
            ],
            [
              5.449619379680399,
              43.52850341358246
            ],
            [
              5.449619379680399,
              43.52877290693496
            ],
            [
              5.449805218209189,
              43.528907653611206
            ],
            [
              5.4499910567379795,
              43.52904240028746
            ],
            [
              5.4499910567379795,
              43.52931189363996
            ],
            [
              5.45017689526677,
              43.5294466403162
            ],
            [
              5.45036273379556,
              43.529581386992454
            ],
            [
              5.45054857232435,
              43.5297161336687
            ],
            [
              5.450734410853141,
              43.52985088034495
            ],
            [
              5.450734410853141,
              43.53012037369745
            ],
            [
              5.45092024938193,
              43.530255120373695
            ],
            [
              5.451106087910721,
              43.53038986704995
            ],
            [
              5.451106087910721,
              43.53065936040244
            ],
            [
              5.451291926439511,
              43.53079410707869
            ],
            [
              5.451477764968301,
              43.530928853754936
            ],
            [
              5.451477764968301,
              43.531198347107434
            ],
            [
              5.451663603497091,
              43.53133309378369
            ],
            [
              5.451849442025882,
              43.53146784045993
            ],
            [
              5.451849442025882,
              43.53173733381243
            ],
            [
              5.4520352805546715,
              43.53187208048868
            ],
            [
              5.452221119083462,
              43.53200682716493
            ],
            [
              5.4524069576122525,
              43.53214157384118
            ],
            [
              5.452592796141042,
              43.532276320517425
            ],
            [
              5.452778634669833,
              43.53241106719368
            ],
            [
              5.452964473198623,
              43.53254581386992
            ],
            [
              5.452964473198623,
              43.53281530722242
            ],
            [
              5.453150311727413,
              43.53295005389867
            ],
            [
              5.453336150256203,
              43.53308480057492
            ],
            [
              5.453336150256203,
              43.53335429392742
            ],
            [
              5.453521988784994,
              43.53348904060366
            ],
            [
              5.453707827313783,
              43.533623787279915
            ],
            [
              5.453707827313783,
              43.53389328063241
            ],
            [
              5.453893665842574,
              43.53402802730866
            ],
            [
              5.454265342900154,
              43.53402802730866
            ],
            [
              5.4544511814289445,
              43.53416277398491
            ],
            [
              5.4544511814289445,
              43.5344322673374
            ],
            [
              5.4544511814289445,
              43.5347017606899
            ],
            [
              5.4544511814289445,
              43.5349712540424
            ],
            [
              5.454265342900154,
              43.53510600071865
            ],
            [
              5.454079504371364,
              43.5349712540424
            ],
            [
              5.453893665842574,
              43.53483650736615
            ],
            [
              5.453707827313783,
              43.5349712540424
            ],
            [
              5.453521988784994,
              43.53510600071865
            ],
            [
              5.453336150256203,
              43.5349712540424
            ],
            [
              5.453150311727413,
              43.53483650736615
            ],
            [
              5.452778634669833,
              43.53483650736615
            ],
            [
              5.452592796141042,
              43.5347017606899
            ],
            [
              5.4524069576122525,
              43.53456701401365
            ],
            [
              5.452221119083462,
              43.5344322673374
            ],
            [
              5.4520352805546715,
              43.534297520661156
            ],
            [
              5.451663603497091,
              43.534297520661156
            ],
            [
              5.451291926439511,
              43.534297520661156
            ],
            [
              5.451106087910721,
              43.53416277398491
            ],
            [
              5.45092024938193,
              43.53402802730866
            ],
            [
              5.45054857232435,
              43.53402802730866
            ],
            [
              5.45036273379556,
              43.53389328063241
            ],
            [
              5.45017689526677,
              43.53375853395616
            ],
            [
              5.449805218209189,
              43.53375853395616
            ],
            [
              5.449619379680399,
              43.533623787279915
            ],
            [
              5.449433541151609,
              43.53348904060366
            ],
            [
              5.449247702622818,
              43.53335429392742
            ],
            [
              5.449061864094029,
              43.533219547251164
            ],
            [
              5.448876025565238,
              43.53308480057492
            ],
            [
              5.448690187036448,
              43.53295005389867
            ],
            [
              5.448504348507658,
              43.53281530722242
            ],
            [
              5.448318509978868,
              43.53268056054617
            ],
            [
              5.4479468329212875,
              43.53268056054617
            ],
            [
              5.447760994392497,
              43.53254581386992
            ],
            [
              5.447575155863706,
              43.53241106719368
            ],
            [
              5.447203478806126,
              43.53241106719368
            ],
            [
              5.447017640277336,
              43.532276320517425
            ],
            [
              5.446831801748545,
              43.53214157384118
            ],
            [
              5.446460124690965,
              43.53214157384118
            ],
            [
              5.446274286162175,
              43.53200682716493
            ],
            [
              5.446088447633385,
              43.53187208048868
            ],
            [
              5.445716770575804,
              43.53187208048868
            ],
            [
              5.445530932047014,
              43.53173733381243
            ],
            [
              5.445345093518224,
              43.531602587136184
            ],
            [
              5.444973416460644,
              43.531602587136184
            ],
            [
              5.444787577931853,
              43.53146784045993
            ],
            [
              5.444601739403063,
              43.53133309378369
            ],
            [
              5.444230062345483,
              43.53133309378369
            ],
            [
              5.444044223816692,
              43.531198347107434
            ],
            [
              5.443858385287903,
              43.53106360043119
            ],
            [
              5.4434867082303215,
              43.53106360043119
            ],
            [
              5.443300869701532,
              43.530928853754936
            ],
            [
              5.443115031172741,
              43.53079410707869
            ],
            [
              5.442929192643951,
              43.53065936040244
            ],
            [
              5.442743354115161,
              43.53052461372619
            ],
            [
              5.44237167705758,
              43.53052461372619
            ],
            [
              5.442185838528791,
              43.53038986704995
            ],
            [
              5.442,
              43.530255120373695
            ],
            [
              5.447017640277336,
              43.525
            ]
          ]
        ]
      }
    },
    {
      "type": "Feature",
      "properties": {
        "layer": "REALITE_SENTINEL2",
        "label": "Verite Terrain Observee (Sentinel-2 dNBR)",
        "stroke": "#0284c7",
        "fill": "#0284c7",
        "fill-opacity": 0.3
      },
      "geometry": {
        "type": "Polygon",
        "coordinates": [
          [
            [
              5.442,
              43.52782968020122
            ],
            [
              5.44237167705758,
              43.52782968020122
            ],
            [
              5.442557515586371,
              43.52769493352497
            ],
            [
              5.442743354115161,
              43.527560186848724
            ],
            [
              5.442929192643951,
              43.52769493352497
            ],
            [
              5.443115031172741,
              43.52782968020122
            ],
            [
              5.4434867082303215,
              43.52782968020122
            ],
            [
              5.443672546759112,
              43.52796442687747
            ],
            [
              5.443858385287903,
              43.52809917355372
            ],
            [
              5.444044223816692,
              43.52796442687747
            ],
            [
              5.443858385287903,
              43.52782968020122
            ],
            [
              5.443672546759112,
              43.52769493352497
            ],
            [
              5.4434867082303215,
              43.527560186848724
            ],
            [
              5.443300869701532,
              43.52742544017247
            ],
            [
              5.443115031172741,
              43.52729069349623
            ],
            [
              5.442929192643951,
              43.527155946819974
            ],
            [
              5.442743354115161,
              43.52702120014373
            ],
            [
              5.442557515586371,
              43.526886453467476
            ],
            [
              5.442557515586371,
              43.526616960114985
            ],
            [
              5.44237167705758,
              43.52648221343873
            ],
            [
              5.442185838528791,
              43.52634746676249
            ],
            [
              5.442,
              43.526212720086235
            ],
            [
              5.442,
              43.52782968020122
            ]
          ]
        ]
      }
    },
    {
      "type": "Feature",
      "properties": {
        "layer": "PREDICTION_FNO_IA",
        "label": "Prediction IA FNO (Seuil P >= 50%)",
        "stroke": "#ea580c",
        "fill": "#ea580c",
        "fill-opacity": 0.4
      },
      "geometry": {
        "type": "Polygon",
        "coordinates": [
          [
            [
              5.447017640277336,
              43.525
            ],
            [
              5.447017640277336,
              43.525269493352496
            ],
            [
              5.447203478806126,
              43.52540424002874
            ],
            [
              5.447389317334916,
              43.525538986704994
            ],
            [
              5.447389317334916,
              43.52580848005749
            ],
            [
              5.447575155863706,
              43.52594322673374
            ],
            [
              5.447760994392497,
              43.52607797340999
            ],
            [
              5.4479468329212875,
              43.526212720086235
            ],
            [
              5.448132671450077,
              43.52634746676249
            ],
            [
              5.448132671450077,
              43.526616960114985
            ],
            [
              5.448318509978868,
              43.52675170679123
            ],
            [
              5.448504348507658,
              43.526886453467476
            ],
            [
              5.448504348507658,
              43.527155946819974
            ],
            [
              5.448690187036448,
              43.52729069349623
            ],
            [
              5.448876025565238,
              43.52742544017247
            ],
            [
              5.448876025565238,
              43.52769493352497
            ],
            [
              5.449061864094029,
              43.52782968020122
            ],
            [
              5.449247702622818,
              43.52796442687747
            ],
            [
              5.449247702622818,
              43.528233920229965
            ],
            [
              5.449433541151609,
              43.52836866690622
            ],
            [
              5.449619379680399,
              43.52850341358246
            ],
            [
              5.449619379680399,
              43.52877290693496
            ],
            [
              5.449805218209189,
              43.528907653611206
            ],
            [
              5.4499910567379795,
              43.52904240028746
            ],
            [
              5.4499910567379795,
              43.52931189363996
            ],
            [
              5.45017689526677,
              43.5294466403162
            ],
            [
              5.45036273379556,
              43.529581386992454
            ],
            [
              5.45054857232435,
              43.5297161336687
            ],
            [
              5.450734410853141,
              43.52985088034495
            ],
            [
              5.450734410853141,
              43.53012037369745
            ],
            [
              5.45092024938193,
              43.530255120373695
            ],
            [
              5.451106087910721,
              43.53038986704995
            ],
            [
              5.451106087910721,
              43.53065936040244
            ],
            [
              5.451291926439511,
              43.53079410707869
            ],
            [
              5.451477764968301,
              43.530928853754936
            ],
            [
              5.451477764968301,
              43.531198347107434
            ],
            [
              5.451663603497091,
              43.53133309378369
            ],
            [
              5.451849442025882,
              43.53146784045993
            ],
            [
              5.451849442025882,
              43.53173733381243
            ],
            [
              5.4520352805546715,
              43.53187208048868
            ],
            [
              5.452221119083462,
              43.53200682716493
            ],
            [
              5.4524069576122525,
              43.53214157384118
            ],
            [
              5.452592796141042,
              43.532276320517425
            ],
            [
              5.452778634669833,
              43.53241106719368
            ],
            [
              5.452964473198623,
              43.53254581386992
            ],
            [
              5.452964473198623,
              43.53281530722242
            ],
            [
              5.453150311727413,
              43.53295005389867
            ],
            [
              5.453336150256203,
              43.53308480057492
            ],
            [
              5.453336150256203,
              43.53335429392742
            ],
            [
              5.453521988784994,
              43.53348904060366
            ],
            [
              5.453707827313783,
              43.533623787279915
            ],
            [
              5.453707827313783,
              43.53389328063241
            ],
            [
              5.453893665842574,
              43.53402802730866
            ],
            [
              5.454265342900154,
              43.53402802730866
            ],
            [
              5.4544511814289445,
              43.53416277398491
            ],
            [
              5.4544511814289445,
              43.5344322673374
            ],
            [
              5.4544511814289445,
              43.5347017606899
            ],
            [
              5.4544511814289445,
              43.5349712540424
            ],
            [
              5.454265342900154,
              43.53510600071865
            ],
            [
              5.454079504371364,
              43.5349712540424
            ],
            [
              5.453893665842574,
              43.53483650736615
            ],
            [
              5.453707827313783,
              43.5349712540424
            ],
            [
              5.453521988784994,
              43.53510600071865
            ],
            [
              5.453336150256203,
              43.5349712540424
            ],
            [
              5.453150311727413,
              43.53483650736615
            ],
            [
              5.452778634669833,
              43.53483650736615
            ],
            [
              5.452592796141042,
              43.5347017606899
            ],
            [
              5.4524069576122525,
              43.53456701401365
            ],
            [
              5.452221119083462,
              43.5344322673374
            ],
            [
              5.4520352805546715,
              43.534297520661156
            ],
            [
              5.451663603497091,
              43.534297520661156
            ],
            [
              5.451291926439511,
              43.534297520661156
            ],
            [
              5.451106087910721,
              43.53416277398491
            ],
            [
              5.45092024938193,
              43.53402802730866
            ],
            [
              5.45054857232435,
              43.53402802730866
            ],
            [
              5.45036273379556,
              43.53389328063241
            ],
            [
              5.45017689526677,
              43.53375853395616
            ],
            [
              5.449805218209189,
              43.53375853395616
            ],
            [
              5.449619379680399,
              43.533623787279915
            ],
            [
              5.449433541151609,
              43.53348904060366
            ],
            [
              5.449247702622818,
              43.53335429392742
            ],
            [
              5.449061864094029,
              43.533219547251164
            ],
            [
              5.448876025565238,
              43.53308480057492
            ],
            [
              5.448690187036448,
              43.53295005389867
            ],
            [
              5.448504348507658,
              43.53281530722242
            ],
            [
              5.448318509978868,
              43.53268056054617
            ],
            [
              5.4479468329212875,
              43.53268056054617
            ],
            [
              5.447760994392497,
              43.53254581386992
            ],
            [
              5.447575155863706,
              43.53241106719368
            ],
            [
              5.447203478806126,
              43.53241106719368
            ],
            [
              5.447017640277336,
              43.532276320517425
            ],
            [
              5.446831801748545,
              43.53214157384118
            ],
            [
              5.446460124690965,
              43.53214157384118
            ],
            [
              5.446274286162175,
              43.53200682716493
            ],
            [
              5.446088447633385,
              43.53187208048868
            ],
            [
              5.445716770575804,
              43.53187208048868
            ],
            [
              5.445530932047014,
              43.53173733381243
            ],
            [
              5.445345093518224,
              43.531602587136184
            ],
            [
              5.444973416460644,
              43.531602587136184
            ],
            [
              5.444787577931853,
              43.53146784045993
            ],
            [
              5.444601739403063,
              43.53133309378369
            ],
            [
              5.444230062345483,
              43.53133309378369
            ],
            [
              5.444044223816692,
              43.531198347107434
            ],
            [
              5.443858385287903,
              43.53106360043119
            ],
            [
              5.4434867082303215,
              43.53106360043119
            ],
            [
              5.443300869701532,
              43.530928853754936
            ],
            [
              5.443115031172741,
              43.53079410707869
            ],
            [
              5.442929192643951,
              43.53065936040244
            ],
            [
              5.442743354115161,
              43.53052461372619
            ],
            [
              5.44237167705758,
              43.53052461372619
            ],
            [
              5.442185838528791,
              43.53038986704995
            ],
            [
              5.442,
              43.530255120373695
            ],
            [
              5.447017640277336,
              43.525
            ]
          ]
        ]
      }
    },
    {
      "type": "Feature",
      "properties": {
        "layer": "PREDICTION_FNO_IA",
        "label": "Prediction IA FNO (Seuil P >= 50%)",
        "stroke": "#ea580c",
        "fill": "#ea580c",
        "fill-opacity": 0.4
      },
      "geometry": {
        "type": "Polygon",
        "coordinates": [
          [
            [
              5.442,
              43.52782968020122
            ],
            [
              5.44237167705758,
              43.52782968020122
            ],
            [
              5.442557515586371,
              43.52769493352497
            ],
            [
              5.442743354115161,
              43.527560186848724
            ],
            [
              5.442929192643951,
              43.52769493352497
            ],
            [
              5.443115031172741,
              43.52782968020122
            ],
            [
              5.4434867082303215,
              43.52782968020122
            ],
            [
              5.443672546759112,
              43.52796442687747
            ],
            [
              5.443858385287903,
              43.52809917355372
            ],
            [
              5.444044223816692,
              43.52796442687747
            ],
            [
              5.443858385287903,
              43.52782968020122
            ],
            [
              5.443672546759112,
              43.52769493352497
            ],
            [
              5.4434867082303215,
              43.527560186848724
            ],
            [
              5.443300869701532,
              43.52742544017247
            ],
            [
              5.443115031172741,
              43.52729069349623
            ],
            [
              5.442929192643951,
              43.527155946819974
            ],
            [
              5.442743354115161,
              43.52702120014373
            ],
            [
              5.442557515586371,
              43.526886453467476
            ],
            [
              5.442557515586371,
              43.526616960114985
            ],
            [
              5.44237167705758,
              43.52648221343873
            ],
            [
              5.442185838528791,
              43.52634746676249
            ],
            [
              5.442,
              43.526212720086235
            ],
            [
              5.442,
              43.52782968020122
            ]
          ]
        ]
      }
    },
    {
      "type": "Feature",
      "properties": {
        "layer": "PREDICTION_FNO_IA",
        "label": "Prediction IA FNO (Seuil P >= 50%)",
        "stroke": "#ea580c",
        "fill": "#ea580c",
        "fill-opacity": 0.4
      },
      "geometry": {
        "type": "Polygon",
        "coordinates": [
          [
            [
              5.4568670823032175,
              43.53295005389867
            ],
            [
              5.457238759360798,
              43.53295005389867
            ],
            [
              5.457610436418378,
              43.53295005389867
            ],
            [
              5.457982113475959,
              43.53295005389867
            ],
            [
              5.458167952004748,
              43.53308480057492
            ],
            [
              5.458167952004748,
              43.53335429392742
            ],
            [
              5.458167952004748,
              43.533623787279915
            ],
            [
              5.458167952004748,
              43.53389328063241
            ],
            [
              5.457982113475959,
              43.53402802730866
            ],
            [
              5.457610436418378,
              43.53402802730866
            ],
            [
              5.457238759360798,
              43.53402802730866
            ],
            [
              5.4568670823032175,
              43.53402802730866
            ],
            [
              5.456681243774427,
              43.53389328063241
            ],
            [
              5.456681243774427,
              43.533623787279915
            ],
            [
              5.456681243774427,
              43.53335429392742
            ],
            [
              5.456681243774427,
              43.53308480057492
            ],
            [
              5.4568670823032175,
              43.53295005389867
            ]
          ]
        ]
      }
    }
  ]
}