{
  "type": "FeatureCollection",
  "features": [
    {
      "type": "Feature",
      "properties": {
        "isochrone_t_min": 15,
        "eta_hours": 0.25,
        "confidence_risk": "P >= 0.5"
      },
      "geometry": {
        "type": "Polygon",
        "coordinates": [
          [
            [
              5.448442402331394,
              43.53047969816745
            ],
            [
              5.448690187036448,
              43.53047969816745
            ],
            [
              5.448937971741501,
              43.53047969816745
            ],
            [
              5.449061864094029,
              43.530569529284946
            ],
            [
              5.449185756446555,
              43.53065936040244
            ],
            [
              5.4493096487990815,
              43.53074919151994
            ],
            [
              5.449433541151609,
              43.53083902263744
            ],
            [
              5.449557433504135,
              43.530928853754936
            ],
            [
              5.449557433504135,
              43.531108515989935
            ],
            [
              5.449557433504135,
              43.53128817822493
            ],
            [
              5.449557433504135,
              43.53146784045993
            ],
            [
              5.449433541151609,
              43.53155767157743
            ],
            [
              5.4493096487990815,
              43.53164750269493
            ],
            [
              5.449185756446555,
              43.53173733381243
            ],
            [
              5.449061864094029,
              43.53182716492993
            ],
            [
              5.448937971741501,
              43.53191699604743
            ],
            [
              5.448690187036448,
              43.53191699604743
            ],
            [
              5.448442402331394,
              43.53191699604743
            ],
            [
              5.448318509978868,
              43.53182716492993
            ],
            [
              5.44819461762634,
              43.53173733381243
            ],
            [
              5.4479468329212875,
              43.53173733381243
            ],
            [
              5.44782294056876,
              43.53164750269493
            ],
            [
              5.44782294056876,
              43.53146784045993
            ],
            [
              5.44782294056876,
              43.53128817822493
            ],
            [
              5.44782294056876,
              43.531108515989935
            ],
            [
              5.44782294056876,
              43.530928853754936
            ],
            [
              5.44782294056876,
              43.53074919151994
            ],
            [
              5.4479468329212875,
              43.53065936040244
            ],
            [
              5.44819461762634,
              43.53065936040244
            ],
            [
              5.448318509978868,
              43.530569529284946
            ],
            [
              5.448442402331394,
              43.53047969816745
            ]
          ]
        ]
      }
    },
    {
      "type": "Feature",
      "properties": {
        "isochrone_t_min": 30,
        "eta_hours": 0.5,
        "confidence_risk": "P >= 0.5"
      },
      "geometry": {
        "type": "Polygon",
        "coordinates": [
          [
            [
              5.448442402331394,
              43.53047969816745
            ],
            [
              5.448690187036448,
              43.53047969816745
            ],
            [
              5.448937971741501,
              43.53047969816745
            ],
            [
              5.449061864094029,
              43.530569529284946
            ],
            [
              5.449185756446555,
              43.53065936040244
            ],
            [
              5.4493096487990815,
              43.53074919151994
            ],
            [
              5.449433541151609,
              43.53083902263744
            ],
            [
              5.449557433504135,
              43.530928853754936
            ],
            [
              5.449557433504135,
              43.531108515989935
            ],
            [
              5.449557433504135,
              43.53128817822493
            ],
            [
              5.449557433504135,
              43.53146784045993
            ],
            [
              5.449433541151609,
              43.53155767157743
            ],
            [
              5.4493096487990815,
              43.53164750269493
            ],
            [
              5.449185756446555,
              43.53173733381243
            ],
            [
              5.449061864094029,
              43.53182716492993
            ],
            [
              5.448937971741501,
              43.53191699604743
            ],
            [
              5.448690187036448,
              43.53191699604743
            ],
            [
              5.448442402331394,
              43.53191699604743
            ],
            [
              5.448318509978868,
              43.53182716492993
            ],
            [
              5.44819461762634,
              43.53173733381243
            ],
            [
              5.4479468329212875,
              43.53173733381243
            ],
            [
              5.44782294056876,
              43.53164750269493
            ],
            [
              5.44782294056876,
              43.53146784045993
            ],
            [
              5.44782294056876,
              43.53128817822493
            ],
            [
              5.44782294056876,
              43.531108515989935
            ],
            [
              5.44782294056876,
              43.530928853754936
            ],
            [
              5.44782294056876,
              43.53074919151994
            ],
            [
              5.4479468329212875,
              43.53065936040244
            ],
            [
              5.44819461762634,
              43.53065936040244
            ],
            [
              5.448318509978868,
              43.530569529284946
            ],
            [
              5.448442402331394,
              43.53047969816745
            ]
          ]
        ]
      }
    },
    {
      "type": "Feature",
      "properties": {
        "isochrone_t_min": 45,
        "eta_hours": 0.75,
        "confidence_risk": "P >= 0.5"
      },
      "geometry": {
        "type": "Polygon",
        "coordinates": [
          [
            [
              5.448442402331394,
              43.53047969816745
            ],
            [
              5.448690187036448,
              43.53047969816745
            ],
            [
              5.448937971741501,
              43.53047969816745
            ],
            [
              5.449061864094029,
              43.530569529284946
            ],
            [
              5.449185756446555,
              43.53065936040244
            ],
            [
              5.4493096487990815,
              43.53074919151994
            ],
            [
              5.449433541151609,
              43.53083902263744
            ],
            [
              5.449557433504135,
              43.530928853754936
            ],
            [
              5.449557433504135,
              43.531108515989935
            ],
            [
              5.449557433504135,
              43.53128817822493
            ],
            [
              5.449557433504135,
              43.53146784045993
            ],
            [
              5.449433541151609,
              43.53155767157743
            ],
            [
              5.4493096487990815,
              43.53164750269493
            ],
            [
              5.449185756446555,
              43.53173733381243
            ],
            [
              5.449061864094029,
              43.53182716492993
            ],
            [
              5.448937971741501,
              43.53191699604743
            ],
            [
              5.448690187036448,
              43.53191699604743
            ],
            [
              5.448442402331394,
              43.53191699604743
            ],
            [
              5.448318509978868,
              43.53182716492993
            ],
            [
              5.44819461762634,
              43.53173733381243
            ],
            [
              5.4479468329212875,
              43.53173733381243
            ],
            [
              5.44782294056876,
              43.53164750269493
            ],
            [
              5.44782294056876,
              43.53146784045993
            ],
            [
              5.44782294056876,
              43.53128817822493
            ],
            [
              5.44782294056876,
              43.531108515989935
            ],
            [
              5.44782294056876,
              43.530928853754936
            ],
            [
              5.44782294056876,
              43.53074919151994
            ],
            [
              5.4479468329212875,
              43.53065936040244
            ],
            [
              5.44819461762634,
              43.53065936040244
            ],
            [
              5.448318509978868,
              43.530569529284946
            ],
            [
              5.448442402331394,
              43.53047969816745
            ]
          ]
        ]
      }
    },
    {
      "type": "Feature",
      "properties": {
        "isochrone_t_min": 60,
        "eta_hours": 1.0,
        "confidence_risk": "P >= 0.5"
      },
      "geometry": {
        "type": "Polygon",
        "coordinates": [
          [
            [
              5.448442402331394,
              43.53047969816745
            ],
            [
              5.448690187036448,
              43.53047969816745
            ],
            [
              5.448937971741501,
              43.53047969816745
            ],
            [
              5.449061864094029,
              43.530569529284946
            ],
            [
              5.449185756446555,
              43.53065936040244
            ],
            [
              5.4493096487990815,
              43.53074919151994
            ],
            [
              5.449433541151609,
              43.53083902263744
            ],
            [
              5.449557433504135,
              43.530928853754936
            ],
            [
              5.449557433504135,
              43.531108515989935
            ],
            [
              5.449557433504135,
              43.53128817822493
            ],
            [
              5.449557433504135,
              43.53146784045993
            ],
            [
              5.449433541151609,
              43.53155767157743
            ],
            [
              5.4493096487990815,
              43.53164750269493
            ],
            [
              5.449185756446555,
              43.53173733381243
            ],
            [
              5.449061864094029,
              43.53182716492993
            ],
            [
              5.448937971741501,
              43.53191699604743
            ],
            [
              5.448690187036448,
              43.53191699604743
            ],
            [
              5.448442402331394,
              43.53191699604743
            ],
            [
              5.448318509978868,
              43.53182716492993
            ],
            [
              5.44819461762634,
              43.53173733381243
            ],
            [
              5.4479468329212875,
              43.53173733381243
            ],
            [
              5.44782294056876,
              43.53164750269493
            ],
            [
              5.44782294056876,
              43.53146784045993
            ],
            [
              5.44782294056876,
              43.53128817822493
            ],
            [
              5.44782294056876,
              43.531108515989935
            ],
            [
              5.44782294056876,
              43.530928853754936
            ],
            [
              5.44782294056876,
              43.53074919151994
            ],
            [
              5.4479468329212875,
              43.53065936040244
            ],
            [
              5.44819461762634,
              43.53065936040244
            ],
            [
              5.448318509978868,
              43.530569529284946
            ],
            [
              5.448442402331394,
              43.53047969816745
            ]
          ]
        ]
      }
    }
  ]
}